start=new Date('2022-01-18T00:00:00.000Z').valueOf();
sats=[{"TIME_SYSTEM":"UTC","FILE":"3276075","MEAN_MOTION":"15.06405321","ECCENTRICITY":"0.00014220","CENTER_NAME":"EARTH","RA_OF_ASC_NODE":"129.0624","ARG_OF_PERICENTER":"90.6452","PERIAPSIS":"546.212","BSTAR":"-0.00009384800000","OBJECT_TYPE":"PAYLOAD","SEMIMAJOR_AXIS":"6925.332","EPOCH":"2022-01-17T17:32:59.387424","NORAD_CAT_ID":"48451","DECAY_DATE":null,"SITE":"AFETR","ELEMENT_SET_NO":"999","PERIOD":"95.592","INCLINATION":"53.0562","GP_ID":"194088611","TLE_LINE2":"2 48451  53.0562 129.0624 0001422  90.6452 269.4700 15.06405321 38741","TLE_LINE1":"1 48451U 21040Z   22017.73124291 -.00001679  00000-0 -93848-4 0  9991","REV_AT_EPOCH":"3874","OBJECT_ID":"2021-040Z","EPHEMERIS_TYPE":"0","LAUNCH_DATE":"2021-05-09","MEAN_ELEMENT_THEORY":"SGP4","MEAN_MOTION_DOT":"-0.00001679","MEAN_MOTION_DDOT":"0.0000000000000","OBJECT_NAME":"STARLINK-2652","COUNTRY_CODE":"US","APOAPSIS":"548.182","CLASSIFICATION_TYPE":"U","MEAN_ANOMALY":"269.4700","RCS_SIZE":"LARGE","REF_FRAME":"TEME"},{"TLE_LINE2":"2 48452  53.0562 129.0470 0001355  84.5139 275.6005 15.06388767 38741","GP_ID":"194087861","PERIOD":"95.593","ELEMENT_SET_NO":"999","INCLINATION":"53.0562","SITE":"AFETR","MEAN_MOTION_DDOT":"0.0000000000000","MEAN_MOTION_DOT":"-0.00002179","MEAN_ELEMENT_THEORY":"SGP4","LAUNCH_DATE":"2021-05-09","EPHEMERIS_TYPE":"0","OBJECT_ID":"2021-040AA","TLE_LINE1":"1 48452U 21040AA  22017.73400414 -.00002179  00000-0 -12745-3 0  9998","REV_AT_EPOCH":"3874","COUNTRY_CODE":"US","OBJECT_NAME":"STARLINK-2703","REF_FRAME":"TEME","RCS_SIZE":"LARGE","MEAN_ANOMALY":"275.6005","CLASSIFICATION_TYPE":"U","APOAPSIS":"548.186","MEAN_MOTION":"15.06388767","FILE":"3276075","TIME_SYSTEM":"UTC","RA_OF_ASC_NODE":"129.0470","ARG_OF_PERICENTER":"84.5139","CENTER_NAME":"EARTH","ECCENTRICITY":"0.00013550","SEMIMAJOR_AXIS":"6925.383","OBJECT_TYPE":"PAYLOAD","BSTAR":"-0.00012745000000","PERIAPSIS":"546.310","DECAY_DATE":null,"EPOCH":"2022-01-17T17:36:57.957696","NORAD_CAT_ID":"48452"},{"APOAPSIS":"548.311","CLASSIFICATION_TYPE":"U","RCS_SIZE":"LARGE","MEAN_ANOMALY":"273.1763","REF_FRAME":"TEME","OBJECT_NAME":"STARLINK-2620","COUNTRY_CODE":"US","TLE_LINE1":"1 48453U 21040AB  22017.72758337 -.00003314  00000-0 -20372-3 0  9995","REV_AT_EPOCH":"3874","OBJECT_ID":"2021-040AB","LAUNCH_DATE":"2021-05-09","MEAN_ELEMENT_THEORY":"SGP4","EPHEMERIS_TYPE":"0","MEAN_MOTION_DOT":"-0.00003314","MEAN_MOTION_DDOT":"0.0000000000000","SITE":"AFETR","ELEMENT_SET_NO":"999","PERIOD":"95.593","INCLINATION":"53.0554","GP_ID":"194088111","TLE_LINE2":"2 48453  53.0554 129.0668 0001531  86.9402 273.1763 15.06387741 38742","NORAD_CAT_ID":"48453","EPOCH":"2022-01-17T17:27:43.203168","DECAY_DATE":null,"PERIAPSIS":"546.191","BSTAR":"-0.00020372000000","OBJECT_TYPE":"PAYLOAD","SEMIMAJOR_AXIS":"6925.386","ECCENTRICITY":"0.00015310","CENTER_NAME":"EARTH","ARG_OF_PERICENTER":"86.9402","RA_OF_ASC_NODE":"129.0668","TIME_SYSTEM":"UTC","FILE":"3276075","MEAN_MOTION":"15.06387741"},{"COUNTRY_CODE":"US","OBJECT_NAME":"STARLINK-2654","MEAN_ANOMALY":"265.4049","RCS_SIZE":"LARGE","CLASSIFICATION_TYPE":"U","REF_FRAME":"TEME","APOAPSIS":"548.490","TLE_LINE2":"2 48454  53.0565 129.0920 0001781  94.7143 265.4049 15.06386123 38746","GP_ID":"194088362","SITE":"AFETR","INCLINATION":"53.0565","PERIOD":"95.593","ELEMENT_SET_NO":"999","EPHEMERIS_TYPE":"0","LAUNCH_DATE":"2021-05-09","MEAN_ELEMENT_THEORY":"SGP4","OBJECT_ID":"2021-040AC","MEAN_MOTION_DDOT":"0.0000000000000","MEAN_MOTION_DOT":"-0.00002441","TLE_LINE1":"1 48454U 21040AC  22017.72389345 -.00002441  00000-0 -14508-3 0  9999","REV_AT_EPOCH":"3874","BSTAR":"-0.00014508000000","SEMIMAJOR_AXIS":"6925.391","OBJECT_TYPE":"PAYLOAD","PERIAPSIS":"546.023","DECAY_DATE":null,"EPOCH":"2022-01-17T17:22:24.394080","NORAD_CAT_ID":"48454","FILE":"3276075","MEAN_MOTION":"15.06386123","TIME_SYSTEM":"UTC","ECCENTRICITY":"0.00017810","ARG_OF_PERICENTER":"94.7143","RA_OF_ASC_NODE":"129.0920","CENTER_NAME":"EARTH"},{"REV_AT_EPOCH":"3873","TLE_LINE1":"1 48455U 21040AD  22017.72020800 -.00003747  00000-0 -23289-3 0  9994","OBJECT_ID":"2021-040AD","EPHEMERIS_TYPE":"0","LAUNCH_DATE":"2021-05-09","MEAN_ELEMENT_THEORY":"SGP4","MEAN_MOTION_DOT":"-0.00003747","MEAN_MOTION_DDOT":"0.0000000000000","SITE":"AFETR","ELEMENT_SET_NO":"999","PERIOD":"95.593","INCLINATION":"53.0535","GP_ID":"194089112","TLE_LINE2":"2 48455  53.0535 129.1042 0001222  86.8676 273.2453 15.06381839 38737","APOAPSIS":"548.116","CLASSIFICATION_TYPE":"U","MEAN_ANOMALY":"273.2453","RCS_SIZE":"LARGE","REF_FRAME":"TEME","OBJECT_NAME":"STARLINK-2497","COUNTRY_CODE":"US","ECCENTRICITY":"0.00012220","CENTER_NAME":"EARTH","ARG_OF_PERICENTER":"86.8676","RA_OF_ASC_NODE":"129.1042","TIME_SYSTEM":"UTC","FILE":"3276075","MEAN_MOTION":"15.06381839","EPOCH":"2022-01-17T17:17:05.971200","NORAD_CAT_ID":"48455","DECAY_DATE":null,"PERIAPSIS":"546.423","BSTAR":"-0.00023289000000","OBJECT_TYPE":"PAYLOAD","SEMIMAJOR_AXIS":"6925.404"},{"BSTAR":"-0.00011375000000","OBJECT_TYPE":"PAYLOAD","SEMIMAJOR_AXIS":"6925.384","PERIAPSIS":"546.242","DECAY_DATE":null,"EPOCH":"2022-01-17T17:11:47.254560","NORAD_CAT_ID":"48456","FILE":"3276075","MEAN_MOTION":"15.06388324","TIME_SYSTEM":"UTC","ECCENTRICITY":"0.00014540","CENTER_NAME":"EARTH","ARG_OF_PERICENTER":"69.0532","RA_OF_ASC_NODE":"129.1280","COUNTRY_CODE":"US","OBJECT_NAME":"STARLINK-2508","CLASSIFICATION_TYPE":"U","RCS_SIZE":"LARGE","MEAN_ANOMALY":"291.0612","REF_FRAME":"TEME","APOAPSIS":"548.256","GP_ID":"194087361","TLE_LINE2":"2 48456  53.0546 129.1280 0001454  69.0532 291.0612 15.06388324 38736","SITE":"AFETR","ELEMENT_SET_NO":"999","PERIOD":"95.593","INCLINATION":"53.0546","OBJECT_ID":"2021-040AE","LAUNCH_DATE":"2021-05-09","EPHEMERIS_TYPE":"0","MEAN_ELEMENT_THEORY":"SGP4","MEAN_MOTION_DOT":"-0.00001975","MEAN_MOTION_DDOT":"0.0000000000000","REV_AT_EPOCH":"3873","TLE_LINE1":"1 48456U 21040AE  22017.71651915 -.00001975  00000-0 -11375-3 0  9995"},{"TLE_LINE1":"1 48458U 21040AG  22017.58795328 -.00002148  00000-0 -12538-3 0  9994","REV_AT_EPOCH":"3919","OBJECT_ID":"2021-040AG","LAUNCH_DATE":"2021-05-09","EPHEMERIS_TYPE":"0","MEAN_ELEMENT_THEORY":"SGP4","MEAN_MOTION_DOT":"-0.00002148","MEAN_MOTION_DDOT":"0.0000000000000","SITE":"AFETR","PERIOD":"95.593","ELEMENT_SET_NO":"999","INCLINATION":"53.0561","GP_ID":"194064106","TLE_LINE2":"2 48458  53.0561 134.7072 0001610  91.9346 268.1828 15.06386769 39193","APOAPSIS":"548.369","CLASSIFICATION_TYPE":"U","RCS_SIZE":"LARGE","MEAN_ANOMALY":"268.1828","REF_FRAME":"TEME","OBJECT_NAME":"STARLINK-2698","COUNTRY_CODE":"US","ECCENTRICITY":"0.00016100","CENTER_NAME":"EARTH","RA_OF_ASC_NODE":"134.7072","ARG_OF_PERICENTER":"91.9346","TIME_SYSTEM":"UTC","FILE":"3275962","MEAN_MOTION":"15.06386769","EPOCH":"2022-01-17T14:06:39.163392","NORAD_CAT_ID":"48458","DECAY_DATE":null,"PERIAPSIS":"546.139","BSTAR":"-0.00012538000000","OBJECT_TYPE":"PAYLOAD","SEMIMAJOR_AXIS":"6925.389"},{"TLE_LINE1":"1 48459U 21040AH  22017.68746732 -.00004495  00000-0 -28317-3 0  9990","REV_AT_EPOCH":"3867","MEAN_MOTION_DDOT":"0.0000000000000","MEAN_MOTION_DOT":"-0.00004495","LAUNCH_DATE":"2021-05-09","EPHEMERIS_TYPE":"0","MEAN_ELEMENT_THEORY":"SGP4","OBJECT_ID":"2021-040AH","ELEMENT_SET_NO":"999","PERIOD":"95.593","INCLINATION":"53.0568","SITE":"AFETR","TLE_LINE2":"2 48459  53.0568 134.2625 0001682  90.3936 269.7245 15.06381986 38675","GP_ID":"194088863","APOAPSIS":"548.434","REF_FRAME":"TEME","RCS_SIZE":"LARGE","MEAN_ANOMALY":"269.7245","CLASSIFICATION_TYPE":"U","OBJECT_NAME":"STARLINK-2579","COUNTRY_CODE":"US","RA_OF_ASC_NODE":"134.2625","ARG_OF_PERICENTER":"90.3936","CENTER_NAME":"EARTH","ECCENTRICITY":"0.00016820","TIME_SYSTEM":"UTC","MEAN_MOTION":"15.06381986","FILE":"3276075","EPOCH":"2022-01-17T16:29:57.176448","NORAD_CAT_ID":"48459","DECAY_DATE":null,"PERIAPSIS":"546.104","SEMIMAJOR_AXIS":"6925.404","OBJECT_TYPE":"PAYLOAD","BSTAR":"-0.00028317000000"},{"MEAN_MOTION_DDOT":"0.0000000000000","MEAN_MOTION_DOT":"-0.00002199","EPHEMERIS_TYPE":"0","LAUNCH_DATE":"2021-05-09","MEAN_ELEMENT_THEORY":"SGP4","OBJECT_ID":"2021-040AJ","TLE_LINE1":"1 48460U 21040AJ  22017.74001885 -.00002199  00000-0 -12881-3 0  9990","REV_AT_EPOCH":"3918","TLE_LINE2":"2 48460  53.0552 134.0225 0001356  78.5711 281.5430 15.06386603 39187","GP_ID":"194088612","PERIOD":"95.593","INCLINATION":"53.0552","ELEMENT_SET_NO":"999","SITE":"AFETR","REF_FRAME":"TEME","MEAN_ANOMALY":"281.5430","RCS_SIZE":"LARGE","CLASSIFICATION_TYPE":"U","APOAPSIS":"548.194","COUNTRY_CODE":"US","OBJECT_NAME":"STARLINK-2582","ARG_OF_PERICENTER":"78.5711","RA_OF_ASC_NODE":"134.0225","CENTER_NAME":"EARTH","ECCENTRICITY":"0.00013560","MEAN_MOTION":"15.06386603","FILE":"3276075","TIME_SYSTEM":"UTC","DECAY_DATE":null,"NORAD_CAT_ID":"48460","EPOCH":"2022-01-17T17:45:37.628640","SEMIMAJOR_AXIS":"6925.390","OBJECT_TYPE":"PAYLOAD","BSTAR":"-0.00012881000000","PERIAPSIS":"546.316"},{"EPOCH":"2022-01-17T18:06:51.462720","NORAD_CAT_ID":"48461","DECAY_DATE":null,"PERIAPSIS":"546.240","OBJECT_TYPE":"PAYLOAD","SEMIMAJOR_AXIS":"6925.376","BSTAR":"-0.00012982000000","CENTER_NAME":"EARTH","ARG_OF_PERICENTER":"70.6585","RA_OF_ASC_NODE":"133.9523","ECCENTRICITY":"0.00014450","TIME_SYSTEM":"UTC","MEAN_MOTION":"15.06391202","FILE":"3276075","APOAPSIS":"548.241","REF_FRAME":"TEME","CLASSIFICATION_TYPE":"U","RCS_SIZE":"LARGE","MEAN_ANOMALY":"289.4560","OBJECT_NAME":"STARLINK-2693","COUNTRY_CODE":"US","REV_AT_EPOCH":"3868","TLE_LINE1":"1 48461U 21040AK  22017.75476230 -.00002214  00000-0 -12982-3 0  9992","MEAN_MOTION_DOT":"-0.00002214","MEAN_MOTION_DDOT":"0.0000000000000","OBJECT_ID":"2021-040AK","LAUNCH_DATE":"2021-05-09","EPHEMERIS_TYPE":"0","MEAN_ELEMENT_THEORY":"SGP4","INCLINATION":"53.0550","PERIOD":"95.593","ELEMENT_SET_NO":"999","SITE":"AFETR","GP_ID":"194087862","TLE_LINE2":"2 48461  53.0550 133.9523 0001445  70.6585 289.4560 15.06391202 38682"}];
